{"type": "FeatureCollection", "features": [{"type": "Feature", "properties": {"Township": "32S", "Commodity": "gem materials", "Type": "industrial mineral", "CommodityAbreviation": "sunstone", "SiteName": "Snakebite", "Owner": "Cowan, Inc.", "County": "Harney", "Section": "34", "Range": "24E", "TopoMap24k": "Rabbit Hills NE", "TopoMap100k": "Bluejoint Lake", "ElevationFeet": "4711", "CommoditiesProduced": " ", "OreMaterial": " ", "DepositType": "volcanic", "WorkingsType": "surface", "WorkingsDescription": " ", "YearOfDiscovery": " ", "ShortReference1": "OrMLRR", "ShortReference2": " ", "ShortReference3": " ", "MapUnit": "Tb", "MapUnitName": "Basalt", "ThematicAge": "Miocene", "ThematicTerraneGroup": "High Lava Plains Volcanic Province", "ThematicFormation": "No data", "ThematicLithology": "basalt", "MILO_ID": "ID_07737", "_cat": "sunstone", "_grp": "gem"}, "geometry": {"type": "Point", "coordinates": [-119.876067, 42.749678]}}, {"type": "Feature", "properties": {"Township": "33S", "Commodity": "gem materials", "Type": "industrial mineral", "CommodityAbreviation": "sunstone", "SiteName": "Three Stooges", "Owner": "Armas, Jeff and Lena", "County": "Lake", "Section": "8", "Range": "25E", "TopoMap24k": "Rabbit Hills NE", "TopoMap100k": "Bluejoint Lake", "ElevationFeet": "4641", "CommoditiesProduced": " ", "OreMaterial": " ", "DepositType": "volcanic", "WorkingsType": "surface", "WorkingsDescription": " ", "YearOfDiscovery": " ", "ShortReference1": "OrMLRR", "ShortReference2": " ", "ShortReference3": " ", "MapUnit": "Tbf", "MapUnitName": "Flows and flow breccias", "ThematicAge": "Miocene", "ThematicTerraneGroup": "Columbia River Basalt Group", "ThematicFormation": "Steens Basalt", "ThematicLithology": "basalt", "MILO_ID": "ID_08091", "_cat": "sunstone", "_grp": "gem"}, "geometry": {"type": "Point", "coordinates": [-119.804646, 42.72308]}}, {"type": "Feature", "properties": {"Township": "33S", "Commodity": "gem materials", "Type": "industrial mineral", "CommodityAbreviation": "sunstone", "SiteName": "Mutt and Jeff 1", "Owner": "Armas, Jeff and Lena", "County": "Lake", "Section": "14", "Range": "24E", "TopoMap24k": "Rabbit Hills NE", "TopoMap100k": "Bluejoint Lake", "ElevationFeet": "4609", "CommoditiesProduced": " ", "OreMaterial": " ", "DepositType": "volcanic", "WorkingsType": "surface", "WorkingsDescription": " ", "YearOfDiscovery": " ", "ShortReference1": "OrMLRR", "ShortReference2": " ", "ShortReference3": " ", "MapUnit": "Tbf", "MapUnitName": "Flows and flow breccias", "ThematicAge": "Miocene", "ThematicTerraneGroup": "Columbia River Basalt Group", "ThematicFormation": "Steens Basalt", "ThematicLithology": "basalt", "MILO_ID": "ID_08092", "_cat": "sunstone", "_grp": "gem"}, "geometry": {"type": "Point", "coordinates": [-119.850506, 42.709383]}}, {"type": "Feature", "properties": {"Township": "33S", "Commodity": "gem materials", "Type": "industrial mineral", "CommodityAbreviation": "sunstone", "SiteName": "Spectrum Mine", "Owner": "unnamed or NA", "County": "Lake", "Section": "3", "Range": "24E", "TopoMap24k": "Rabbit Hills NE", "TopoMap100k": "Bluejoint Lake", "ElevationFeet": "4638", "CommoditiesProduced": " ", "OreMaterial": " ", "DepositType": "volcanic", "WorkingsType": "surface", "WorkingsDescription": " ", "YearOfDiscovery": " ", "ShortReference1": " ", "ShortReference2": " ", "ShortReference3": " ", "MapUnit": "Tbf", "MapUnitName": "Flows and flow breccias", "ThematicAge": "Miocene", "ThematicTerraneGroup": "Columbia River Basalt Group", "ThematicFormation": "Steens Basalt", "ThematicLithology": "basalt", "MILO_ID": "ID_20418", "_cat": "sunstone", "_grp": "gem"}, "geometry": {"type": "Point", "coordinates": [-119.867932, 42.732679]}}, {"type": "Feature", "properties": {"Township": "33S", "Commodity": "gem materials", "Type": "industrial mineral", "CommodityAbreviation": "sunstone", "SiteName": "Dust Devil sunstones", "Owner": "unnamed or NA", "County": "Lake", "Section": "15", "Range": "24E", "TopoMap24k": "Rabbit Hills NE", "TopoMap100k": "Bluejoint Lake", "ElevationFeet": "4588", "CommoditiesProduced": " ", "OreMaterial": " ", "DepositType": "volcanic", "WorkingsType": "surface", "WorkingsDescription": " ", "YearOfDiscovery": " ", "ShortReference1": " ", "ShortReference2": " ", "ShortReference3": " ", "MapUnit": "Tst1", "MapUnitName": "Tuffaceous sedimentary rocks, tuffs, and interbedded basaltic and andesitic flows", "ThematicAge": "Miocene", "ThematicTerraneGroup": "Neogene sedimentary rocks", "ThematicFormation": "No data", "ThematicLithology": "tuffaceous sedimentary rocks", "MILO_ID": "ID_20419", "_cat": "sunstone", "_grp": "gem"}, "geometry": {"type": "Point", "coordinates": [-119.867377, 42.715307]}}, {"type": "Feature", "properties": {"Township": "33S", "Commodity": "gem materials", "Type": "industrial mineral", "CommodityAbreviation": "sunstone", "SiteName": "Magic Valley Gem", "Owner": "unnamed or NA", "County": "Lake", "Section": "23", "Range": "24E", "TopoMap24k": "Rabbit Hills NE", "TopoMap100k": "Bluejoint Lake", "ElevationFeet": "4580", "CommoditiesProduced": " ", "OreMaterial": " ", "DepositType": "volcanic", "WorkingsType": "surface", "WorkingsDescription": " ", "YearOfDiscovery": " ", "ShortReference1": " ", "ShortReference2": " ", "ShortReference3": " ", "MapUnit": "QTs", "MapUnitName": "Sedimentary deposits", "ThematicAge": "Quaternary", "ThematicTerraneGroup": "Quaternary surficial deposits", "ThematicFormation": "Pluvial lake valley deposits", "ThematicLithology": "mixed grained sediments", "MILO_ID": "ID_20420", "_cat": "sunstone", "_grp": "gem"}, "geometry": {"type": "Point", "coordinates": [-119.851828, 42.699338]}}, {"type": "Feature", "properties": {"Township": "33S", "Commodity": "gem materials", "Type": "industrial mineral", "CommodityAbreviation": "gemstone", "SiteName": "Owyhee West", "Owner": "unnamed or NA", "County": "Lake", "Section": "1", "Range": "24E", "TopoMap24k": "Rabbit Hills NE", "TopoMap100k": "Bluejoint Lake", "ElevationFeet": "4685", "CommoditiesProduced": " ", "OreMaterial": " ", "DepositType": " ", "WorkingsType": "surface", "WorkingsDescription": "Producer", "YearOfDiscovery": " ", "ShortReference1": " ", "ShortReference2": " ", "ShortReference3": " ", "MapUnit": "Tbf", "MapUnitName": "Flows and flow breccias", "ThematicAge": "Miocene", "ThematicTerraneGroup": "Columbia River Basalt Group", "ThematicFormation": "Steens Basalt", "ThematicLithology": "basalt", "MILO_ID": "ID_20421", "_cat": "gem_other", "_grp": "gem"}, "geometry": {"type": "Point", "coordinates": [-119.828866, 42.732078]}}, {"type": "Feature", "properties": {"Township": "33S", "Commodity": "gem materials", "Type": "industrial mineral", "CommodityAbreviation": "gemstone", "SiteName": "Willow Leaf", "Owner": "unnamed or NA", "County": "Lake", "Section": "3", "Range": "24E", "TopoMap24k": "Rabbit Hills NE", "TopoMap100k": "Bluejoint Lake", "ElevationFeet": "4683", "CommoditiesProduced": " ", "OreMaterial": " ", "DepositType": " ", "WorkingsType": "surface", "WorkingsDescription": "Producer", "YearOfDiscovery": " ", "ShortReference1": " ", "ShortReference2": " ", "ShortReference3": " ", "MapUnit": "Tbf", "MapUnitName": "Flows and flow breccias", "ThematicAge": "Miocene", "ThematicTerraneGroup": "Columbia River Basalt Group", "ThematicFormation": "Steens Basalt", "ThematicLithology": "basalt", "MILO_ID": "ID_20422", "_cat": "gem_other", "_grp": "gem"}, "geometry": {"type": "Point", "coordinates": [-119.874966, 42.745678]}}, {"type": "Feature", "properties": {"Township": "33S", "Commodity": "gem materials", "Type": "industrial mineral", "CommodityAbreviation": "sunstone", "SiteName": "unnamed or NA", "Owner": "unnamed or NA", "County": "Lake", "Section": "11", "Range": "24E", "TopoMap24k": "Rabbit Hills NE", "TopoMap100k": "Bluejoint Lake", "ElevationFeet": "4632", "CommoditiesProduced": " ", "OreMaterial": " ", "DepositType": "volcanic", "WorkingsType": "surface", "WorkingsDescription": " ", "YearOfDiscovery": " ", "ShortReference1": " ", "ShortReference2": " ", "ShortReference3": " ", "MapUnit": "Tbf", "MapUnitName": "Flows and flow breccias", "ThematicAge": "Miocene", "ThematicTerraneGroup": "Columbia River Basalt Group", "ThematicFormation": "Steens Basalt", "ThematicLithology": "basalt", "MILO_ID": "ID_20423", "_cat": "sunstone", "_grp": "gem"}, "geometry": {"type": "Point", "coordinates": [-119.855065, 42.724548]}}, {"type": "Feature", "properties": {"Township": "33S", "Commodity": "gem materials", "Type": "industrial mineral", "CommodityAbreviation": "gemstone", "SiteName": "Gold Sheen", "Owner": "unnamed or NA", "County": "Lake", "Section": "18", "Range": "25E", "TopoMap24k": "Rabbit Hills NE", "TopoMap100k": "Bluejoint Lake", "ElevationFeet": "4620", "CommoditiesProduced": " ", "OreMaterial": " ", "DepositType": " ", "WorkingsType": "surface", "WorkingsDescription": "Producer", "YearOfDiscovery": " ", "ShortReference1": " ", "ShortReference2": " ", "ShortReference3": " ", "MapUnit": "Tbf", "MapUnitName": "Flows and flow breccias", "ThematicAge": "Miocene", "ThematicTerraneGroup": "Columbia River Basalt Group", "ThematicFormation": "Steens Basalt", "ThematicLithology": "basalt", "MILO_ID": "ID_20424", "_cat": "gem_other", "_grp": "gem"}, "geometry": {"type": "Point", "coordinates": [-119.819365, 42.710979]}}, {"type": "Feature", "properties": {"Township": "33S", "Commodity": "gem materials", "Type": "industrial mineral", "CommodityAbreviation": "sunstone", "SiteName": "unnamed or NA", "Owner": "unnamed or NA", "County": "Lake", "Section": "5", "Range": "24E", "TopoMap24k": "Rabbit Hills NW", "TopoMap100k": "Bluejoint Lake", "ElevationFeet": "4739", "CommoditiesProduced": " ", "OreMaterial": " ", "DepositType": "volcanic", "WorkingsType": "surface", "WorkingsDescription": " ", "YearOfDiscovery": " ", "ShortReference1": " ", "ShortReference2": " ", "ShortReference3": " ", "MapUnit": "Tva", "MapUnitName": "Volcanic and sedimentary rocks", "ThematicAge": "Miocene", "ThematicTerraneGroup": "High Lava Plains Volcanic Province", "ThematicFormation": "No data", "ThematicLithology": "andesite", "MILO_ID": "ID_20425", "_cat": "sunstone", "_grp": "gem"}, "geometry": {"type": "Point", "coordinates": [-119.915259, 42.744794]}}]}